[{"OBJECT_NAME":"LYNK TOWER 5","OBJECT_ID":"2024-043Z","EPOCH":"2026-03-09T22:11:51.175104","MEAN_MOTION":15.29454506,"ECCENTRICITY":0.00104056,"INCLINATION":97.5458,"RA_OF_ASC_NODE":204.7305,"ARG_OF_PERICENTER":234.6422,"MEAN_ANOMALY":125.3846,"EPHEMERIS_TYPE":0,"CLASSIFICATION_TYPE":"U","NORAD_CAT_ID":59121,"ELEMENT_SET_NO":999,"REV_AT_EPOCH":11186,"BSTAR":0.00031901545,"MEAN_MOTION_DOT":9.048e-5,"MEAN_MOTION_DDOT":0},{"OBJECT_NAME":"STARLINK-35488","OBJECT_ID":"2025-245W","EPOCH":"2026-03-09T20:58:48.694080","MEAN_MOTION":15.30195842,"ECCENTRICITY":0.00010091,"INCLINATION":53.1565,"RA_OF_ASC_NODE":283.1162,"ARG_OF_PERICENTER":83.7537,"MEAN_ANOMALY":276.3579,"EPHEMERIS_TYPE":0,"CLASSIFICATION_TYPE":"U","NORAD_CAT_ID":66254,"ELEMENT_SET_NO":999,"REV_AT_EPOCH":2128,"BSTAR":0.00076839006,"MEAN_MOTION_DOT":0.00022464,"MEAN_MOTION_DDOT":0}]
